stk.v.11.0
BEGIN Ephemeris
NumberOfEphemerisPoints 6028
ScenarioEpoch 21 Mar 2026 09:32:00.000
InterpolationMethod Lagrange
InterpolationOrder 7
CentralBody Earth
CoordinateSystem TEME
DistanceUnit Kilometers
BEGIN EphemerisTimePosVel
350517.981671 6792.439420251 -1093.160245997 -61.132922952 -0.096782420 -1.017428251 7.542607332
350612.639511 6746.084199044 -1183.303260392 651.864647218 -0.881754222 -0.885437482 7.508356090
350707.297351 6625.813550534 -1260.481062862 1357.719824497 -1.657093838 -0.743740072 7.391834565
350801.955191 6432.942583775 -1323.847524303 2048.698154800 -2.414304252 -0.593888053 7.194313569
350896.613031 6169.582098927 -1372.707806714 2717.227651428 -3.145085924 -0.437523062 6.917951923
350991.270871 5838.615562954 -1406.526001418 3355.981820144 -3.841427874 -0.276358367 6.565773043
351085.928711 5443.667603721 -1424.931026167 3957.960014770 -4.495695642 -0.112160089 6.141632007
351180.586551 4989.064363888 -1427.720715420 4516.564239199 -5.100715160 0.053272163 5.650173468
351275.244391 4479.786146099 -1414.864057873 5025.671549940 -5.649851602 0.218125036 5.096780868
351369.902231 3921.412866394 -1386.501555777 5479.701260966 -6.137082349 0.380591339 4.487517508
351464.560071 3320.062912636 -1342.943701216 5873.676209280 -6.557063238 0.538889886 3.829060103
351559.217912 2682.326078141 -1284.667585380 6203.277404619 -6.905187379 0.691285061 3.128625565
351653.875752 2015.191306703 -1212.311677482 6464.891459327 -7.177635865 0.836105893 2.393891817
351748.533592 1325.970043080 -1126.668830267 6655.650273939 -7.371419827 0.971764416 1.632913507
351843.191432 622.216032124 -1028.677588705 6773.462539446 -7.484413345 1.096773126 0.854033545
351937.849272 -88.357550610 -919.411897305 6817.036707642 -7.515376864 1.209761330 0.065791462
352032.507112 -797.962724046 -800.069319242 6785.895175374 -7.463970846 1.309490211 -0.723170410
352127.164952 -1498.822150256 -671.957897001 6680.379525806 -7.330759498 1.394866438 -1.504201900
352221.822792 -2183.254465063 -536.481799322 6501.646768910 -7.117204549 1.464954176 -2.268740039
352316.480632 -2843.758550428 -395.125912639 6251.656623098 -6.825649142 1.518985359 -3.008403128
352411.138472 -3473.095820320 -249.439546915 5933.149979205 -6.459292004 1.556368110 -3.715082806
352505.796312 -4064.369614091 -101.019435481 5549.618785588 -6.022152217 1.576693224 -4.381033076
352600.454152 -4611.100823712 48.507783717 5105.267688037 -5.519024952 1.579738634 -4.998955327
352695.111992 -5107.298923438 197.503412472 4604.967849208 -4.955428683 1.565471817 -5.562078399
352789.769832 -5547.527621767 344.334665758 4054.203458511 -4.337544454 1.534050112 -6.064232817
352884.427672 -5926.964415613 487.392576496 3459.011523793 -3.672147892 1.485818955 -6.499918374
352979.085512 -6241.453394496 625.109634799 2825.915609810 -2.966534710 1.421308038 -6.864364329
353073.743352 -6487.550717641 755.976967928 2161.854254656 -2.228440535 1.341225456 -7.153581552
353168.401192 -6662.562268175 878.560872511 1474.104853260 -1.465955943 1.246449886 -7.364406070
353263.059032 -6764.573075240 991.518517821 770.203846089 -0.687437654 1.138020911 -7.494533520
353357.716872 -6792.468185862 1093.612648306 57.864090942 0.098583155 1.017127571 -7.542544154
353452.374712 -6745.944762637 1183.725124696 -655.109674385 0.883494381 0.885095293 -7.507918142
353547.032552 -6625.515279859 1260.869155975 -1360.906350883 1.658697369 0.743371329 -7.391040988
353641.690392 -6432.501788404 1324.200088999 -2051.794041228 2.415701071 0.593508871 -7.193199045
353736.348232 -6169.021317443 1373.024638532 -2720.204720123 3.146214985 0.437150014 -6.916565163
353831.006073 -5837.962577911 1406.808457592 -3358.817086235 3.842239831 0.276007758 -6.564174655
353925.663913 -5442.954227409 1425.181966316 -3960.636690840 4.496155009 0.111847241 -6.139891848
354020.321753 -4988.325047986 1427.944376561 -4519.072468976 5.100801859 -0.053533577 -5.648367590
354114.979593 -4479.056475972 1415.065869248 -5028.008839063 5.649561846 -0.218323591 -5.094988199
354209.637433 -3920.728005839 1386.687901568 -5481.872586000 6.136428800 -0.380718357 -4.485816395
354304.295273 -3319.456067058 1343.121641524 -5875.693800220 6.556074460 -0.538939816 -3.827524892
354398.953113 -2681.827043318 1284.844547667 -6205.160210374 6.903906586 -0.691255720 -3.127323353
354493.610953 -2014.825166563 1212.495131955 -6466.664319568 7.176119034 -0.835998564 -2.392879518
354588.268793 -1325.756073418 1126.865963391 -6657.342833485 7.369733250 -0.971583789 -1.632235361
354682.926633 -622.166858152 1028.894989125 -6775.107952640 7.482630734 -1.096527096 -0.853719192
354777.584473 88.236506040 919.655267886 -6818.670189351 7.513576129 -1.209460650 -0.065854640
354872.242313 797.673477453 800.343227829 -6787.552461926 7.462230686 -1.309148022 0.722732462
354966.900153 1498.374069391 672.265576782 -6682.095313145 7.329155967 -1.394497695 1.503408323
355061.557993 2182.663859500 536.825007520 -6503.453196212 7.115807730 -1.464574995 2.267625515
355156.215833 2843.047958752 395.504853717 -6253.581868140 6.824520081 -1.518612312 3.007016368
355250.873673 3472.293025088 249.852863635 -5935.217026857 6.458480047 -1.556017501 3.713484417
355345.531513 4063.506427594 101.464268227 -5551.844423265 6.021692851 -1.576380376 4.379292916
355440.189353 4610.211697631 -48.035671964 -5107.661772010 5.518938253 -1.579477220 4.997149449
355534.847193 5106.419443138 -197.009450955 -4607.532873833 4.955718440 -1.565273262 5.560285729
355629.505033 5546.692951046 -343.825238657 -4056.934447221 4.338198003 -1.533923094 6.062531703
355724.162873 5926.207759872 -486.874743914 -3461.896246594 3.673136670 -1.485769025 6.498383164
355818.820713 6240.804549510 -624.590824197 -2828.935117788 2.967815503 -1.421337379 6.863062117
355913.478553 6487.034767338 -755.464649513 -2164.983708141 2.229957366 -1.341332785 7.152569252
356008.136393 6662.198488345 -878.062232747 -1477.314607436 1.467642520 -1.246630513 7.363727925
356102.794233 6764.374091095 -991.040145352 -773.460746614 0.689220264 -1.138266940 7.494219166
356197.452074 6792.439420251 -1093.160245997 -61.132922952 -0.096782420 -1.017428251 7.542607332
356292.109914 6746.084199044 -1183.303260392 651.864647217 -0.881754222 -0.885437482 7.508356090
356386.767754 6625.813550534 -1260.481062862 1357.719824497 -1.657093838 -0.743740072 7.391834565
356481.425594 6432.942583775 -1323.847524303 2048.698154800 -2.414304252 -0.593888053 7.194313569
356576.083434 6169.582098926 -1372.707806714 2717.227651428 -3.145085924 -0.437523062 6.917951923
356670.741274 5838.615562954 -1406.526001418 3355.981820145 -3.841427874 -0.276358367 6.565773043
356765.399114 5443.667603722 -1424.931026167 3957.960014770 -4.495695642 -0.112160089 6.141632007
356860.056954 4989.064363888 -1427.720715420 4516.564239199 -5.100715160 0.053272163 5.650173468
356954.714794 4479.786146099 -1414.864057873 5025.671549940 -5.649851602 0.218125036 5.096780868
357049.372634 3921.412866394 -1386.501555777 5479.701260966 -6.137082349 0.380591339 4.487517508
357144.030474 3320.062912636 -1342.943701216 5873.676209280 -6.557063238 0.538889886 3.829060103
357238.688314 2682.326078141 -1284.667585380 6203.277404619 -6.905187379 0.691285061 3.128625565
357333.346154 2015.191306703 -1212.311677482 6464.891459326 -7.177635865 0.836105893 2.393891817
357428.003994 1325.970043081 -1126.668830267 6655.650273938 -7.371419827 0.971764416 1.632913507
357522.661834 622.216032124 -1028.677588705 6773.462539446 -7.484413345 1.096773126 0.854033545
357617.319674 -88.357550610 -919.411897305 6817.036707642 -7.515376864 1.209761330 0.065791462
357711.977514 -797.962724046 -800.069319242 6785.895175374 -7.463970846 1.309490211 -0.723170410
357806.635354 -1498.822150256 -671.957897001 6680.379525806 -7.330759498 1.394866438 -1.504201900
357901.293194 -2183.254465064 -536.481799322 6501.646768910 -7.117204549 1.464954176 -2.268740039
357995.951034 -2843.758550428 -395.125912639 6251.656623098 -6.825649142 1.518985359 -3.008403128
358090.608874 -3473.095820320 -249.439546915 5933.149979205 -6.459292004 1.556368110 -3.715082806
358185.266714 -4064.369614091 -101.019435481 5549.618785588 -6.022152217 1.576693224 -4.381033076
358279.924554 -4611.100823712 48.507783717 5105.267688037 -5.519024952 1.579738634 -4.998955327
358374.582394 -5107.298923438 197.503412472 4604.967849207 -4.955428683 1.565471817 -5.562078399
358469.240235 -5547.527621767 344.334665758 4054.203458510 -4.337544454 1.534050112 -6.064232817
358563.898075 -5926.964415613 487.392576496 3459.011523793 -3.672147892 1.485818955 -6.499918374
358658.555915 -6241.453394495 625.109634799 2825.915609810 -2.966534710 1.421308038 -6.864364329
358753.213755 -6487.550717641 755.976967928 2161.854254656 -2.228440535 1.341225456 -7.153581552
358847.871595 -6662.562268175 878.560872511 1474.104853260 -1.465955943 1.246449886 -7.364406070
358942.529435 -6764.573075240 991.518517821 770.203846090 -0.687437654 1.138020911 -7.494533520
359037.187275 -6792.468185862 1093.612648306 57.864090942 0.098583155 1.017127571 -7.542544154
359131.845115 -6745.944762637 1183.725124696 -655.109674386 0.883494381 0.885095293 -7.507918142
359226.502955 -6625.515279859 1260.869155975 -1360.906350884 1.658697369 0.743371329 -7.391040988
359321.160795 -6432.501788404 1324.200088999 -2051.794041228 2.415701071 0.593508871 -7.193199045
359415.818635 -6169.021317443 1373.024638532 -2720.204720123 3.146214985 0.437150014 -6.916565163
359510.476475 -5837.962577911 1406.808457592 -3358.817086236 3.842239831 0.276007758 -6.564174655
359605.134315 -5442.954227409 1425.181966316 -3960.636690840 4.496155009 0.111847241 -6.139891848
359699.792155 -4988.325047986 1427.944376561 -4519.072468976 5.100801859 -0.053533577 -5.648367590
359794.449995 -4479.056475971 1415.065869248 -5028.008839063 5.649561846 -0.218323591 -5.094988199
359889.107835 -3920.728005840 1386.687901568 -5481.872586000 6.136428800 -0.380718357 -4.485816395
END EphemerisTimePosVel
END Ephemeris
